IRIDIUM 7               
1 24793U 97020B   26007.48191748  .00000449  00000+0  14735-3 0  9999
2 24793  86.3951  91.3021 0002228 103.8353 256.3092 14.36132341501216
IRIDIUM 5               
1 24795U 97020D   26007.46495538  .00003811  00000+0  29427-3 0  9993
2 24795  86.3891 349.3529 0106164 122.9564 238.1930 14.96757855515998
IRIDIUM 4               
1 24796U 97020E   26007.47639150  .00000462  00000+0  14934-3 0  9991
2 24796  86.3944  88.0435 0002076  99.1332 261.0100 14.37038919501803
IRIDIUM 914             
1 24836U 97030A   26007.53144237  .00000538  00000+0  16100-3 0  9992
2 24836  86.3930  96.0216 0000625 123.9183 236.2076 14.41099548636554
IRIDIUM 16              
1 24841U 97030F   26007.38204664  .00000612  00000+0  19243-3 0  9996
2 24841  86.4048 119.5424 0004125 106.0961 254.0691 14.38920817496360
IRIDIUM 911             
1 24842U 97030G   26007.35470433  .00000775  00000+0  20330-3 0  9992
2 24842  86.4472 118.0977 0015734 132.0025 228.2521 14.47937659504623
IRIDIUM 17              
1 24870U 97034B   26007.42346418  .00000594  00000+0  18964-3 0  9999
2 24870  86.3990 148.9431 0003488  81.0172 279.1421 14.38055349492935
IRIDIUM 920             
1 24871U 97034C   26007.42769910  .00000611  00000+0  18111-3 0  9990
2 24871  86.3998 127.7039 0013263 123.1995 237.0479 14.41762320496002
